{"type": "FeatureCollection", "features": [ {"type": "Feature", "properties": {"norad_id": 64901, "name": "CO3D 4", "group": "resource", "lat": 11.802926947814754, "lon": 53.732976173540536, "alt_km": 507.33204013123486, "timestamp": "2025-12-04T19:33:59.289332+00:00", "meta": {"OBJECT_NAME": "CO3D 4", "OBJECT_ID": "2025-156C", "EPOCH": "2025-12-01T18:50:45.474720", "MEAN_MOTION": 15.20204195, "ECCENTRICITY": 0.00012108, "INCLINATION": 97.4354, "RA_OF_ASC_NODE": 52.3098, "ARG_OF_PERICENTER": 238.3057, "MEAN_ANOMALY": 121.806, "EPHEMERIS_TYPE": 0, "CLASSIFICATION_TYPE": "U", "NORAD_CAT_ID": 64901, "ELEMENT_SET_NO": 999, "REV_AT_EPOCH": 1954, "BSTAR": -1.4420799e-05, "MEAN_MOTION_DOT": -3.8e-06, "MEAN_MOTION_DDOT": 0}, "tle": {"line1": "1 64901U 25156C   25335.78524855 -.00000380  00000+0 -14421-4 0  9999", "line2": "2 64901  97.4354  52.3098 0001210 238.3057 121.8060 15.20204195 19549"}}, "geometry": {"type": "Point", "coordinates": [53.732976173540536, 11.802926947814754]}}, {"type": "Feature", "properties": {"norad_id": 64902, "name": "CO3D 2", "group": "resource", "lat": -14.396599934720008, "lon": -126.72501090206917, "alt_km": 509.9420113901351, "timestamp": "2025-12-04T19:33:59.289341+00:00", "meta": {"OBJECT_NAME": "CO3D 2", "OBJECT_ID": "2025-156D", "EPOCH": "2025-12-04T07:39:21.333024", "MEAN_MOTION": 15.20202133, "ECCENTRICITY": 8.561e-05, "INCLINATION": 97.4351, "RA_OF_ASC_NODE": 54.7068, "ARG_OF_PERICENTER": 101.9032, "MEAN_ANOMALY": 258.23, "EPHEMERIS_TYPE": 0, "CLASSIFICATION_TYPE": "U", "NORAD_CAT_ID": 64902, "ELEMENT_SET_NO": 999, "REV_AT_EPOCH": 1992, "BSTAR": 0.0013061215, "MEAN_MOTION_DOT": 0.00028315, "MEAN_MOTION_DDOT": 0}, "tle": {"line1": "1 64902U 25156D   25338.31899691  .00028315  00000+0  13061-2 0  9998", "line2": "2 64902  97.4351  54.7068 0000856 101.9032 258.2300 15.20202133 19927"}}, "geometry": {"type": "Point", "coordinates": [-126.72501090206917, -14.396599934720008]}}, {"type": "Feature", "properties": {"norad_id": 64903, "name": "CO3D 1", "group": "resource", "lat": -13.547845671615827, "lon": -126.60790392359877, "alt_km": 509.77760257140835, "timestamp": "2025-12-04T19:33:59.289350+00:00", "meta": {"OBJECT_NAME": "CO3D 1", "OBJECT_ID": "2025-156E", "EPOCH": "2025-12-04T07:39:34.567776", "MEAN_MOTION": 15.20196014, "ECCENTRICITY": 9.615e-05, "INCLINATION": 97.4351, "RA_OF_ASC_NODE": 54.7063, "ARG_OF_PERICENTER": 112.7871, "MEAN_ANOMALY": 247.3466, "EPHEMERIS_TYPE": 0, "CLASSIFICATION_TYPE": "U", "NORAD_CAT_ID": 64903, "ELEMENT_SET_NO": 999, "REV_AT_EPOCH": 1992, "BSTAR": 0.00080462154, "MEAN_MOTION_DOT": 0.00017388, "MEAN_MOTION_DDOT": 0}, "tle": {"line1": "1 64903U 25156E   25338.31915009  .00017388  00000+0  80462-3 0  9999", "line2": "2 64903  97.4351  54.7063 0000961 112.7871 247.3466 15.20196014 19923"}}, "geometry": {"type": "Point", "coordinates": [-126.60790392359877, -13.547845671615827]}}, {"type": "Feature", "properties": {"norad_id": 66514, "name": "SENTINEL-6B", "group": "resource", "lat": -30.730012656819113, "lon": 14.288848316021676, "alt_km": 1317.7224850312004, "timestamp": "2025-12-04T19:33:59.289359+00:00", "meta": {"OBJECT_NAME": "SENTINEL-6B", "OBJECT_ID": "2025-264A", "EPOCH": "2025-12-03T21:55:25.872096", "MEAN_MOTION": 12.85877574, "ECCENTRICITY": 0.0011544, "INCLINATION": 66.039, "RA_OF_ASC_NODE": 180.8509, "ARG_OF_PERICENTER": 268.5805, "MEAN_ANOMALY": 91.389, "EPHEMERIS_TYPE": 0, "CLASSIFICATION_TYPE": "U", "NORAD_CAT_ID": 66514, "ELEMENT_SET_NO": 999, "REV_AT_EPOCH": 215, "BSTAR": 0.00031328, "MEAN_MOTION_DOT": 1.5e-07, "MEAN_MOTION_DDOT": 0}, "tle": {"line1": "1 66514U 25264A   25337.91349389  .00000015  00000+0  31328-3 0  9992", "line2": "2 66514  66.0390 180.8509 0011544 268.5805  91.3890 12.85877574  2150"}}, "geometry": {"type": "Point", "coordinates": [14.288848316021676, -30.730012656819113]}}]}